#dP2022  5 17 12  0  0.00000000      96 __u+U ITR00 EXT  IAC
## 2210 216000.00000000   900.00000000 59716 0.5000000000000
+  116   C06C07C08C09C10C11C12C13C14C16C19C20C21C22C23C24C25
+        C26C27C28C29C30C32C33C34C35C36C37C38C39C40C41C42C43
+        C44C45C46E02E03E04E05E07E08E09E10E11E12E13E14E15E18
+        E19E21E24E25E26E27E30E31E33E34E36G01G02G03G04G05G06
+        G07G08G09G10G11G12G13G14G15G16G17G18G19G20G21G22G23
+        G24G25G26G27G28G29G30G31G32J02J03R01R02R03R04R05R07
+        R08R09R11R12R13R14R15R17R18R19R20R21R22R24  0  0  0
++        11  9  8 11  8  9  6  8  9  9  9  9 10  9  8 10  8
++        10  9  8  8  9  9 10  9  9  9  9 10 10 10  8  9  8
++        10  9  8 10  8  8  8  9  8  8  8  8  8  9  8  9  9
++         9  8  8  8  8  9  8  8  7  9  9  8  9  7  8  7  9
++        12  8  9  9  9  9  8  7  8  9  9  8  9  7  9  9  8
++         7  8  8  7  8  8  8  9  9 12  8  8  9  9  8  8  8
++         8  9  9  8  8  9  7  9  8  9  8  9  9  9  0  0  0
%c M  cc GPS ccc cccc cccc cccc cccc ccccc ccccc ccccc ccccc
%c cc cc ccc ccc cccc cccc cccc cccc ccccc ccccc ccccc ccccc
%f  0.0000000  0.000000000  0.00000000000  0.000000000000000
%f  0.0000000  0.000000000  0.00000000000  0.000000000000000
%i    0    0    0    0      0      0      0      0         0
%i    0    0    0    0      0      0      0      0         0
/* IAC                                ULTRA-RAPID PREDICTION
/* S/V CLOCKS ARE ALIGNED TO GNSS TIME                      
/* G:C1WC2W R:C1PC2P E:C1XC5X C:C2IC6I J:C1CC2S             
/* PCV:IGS14_2196 OL/AL:FES2004  NONE     YN ORB:CoN CLK:CoN
*  2022 05 17 12 15  0.00000000
PC06 -15026.577201  38959.214639  -6620.746290      2.343144
PC07  -2862.650843  32198.482153 -27006.534190   -177.909674
PC08 -14262.580092  20491.407743  33951.877921    317.323898
PC09 -10386.738498  38371.552761 -14403.825324   -795.780444
PC10   4967.077149  35117.407286 -22200.656409    131.810075
PC11   8055.240357 -26004.303866  -6144.368584    357.668574
PC12  17076.199068 -19019.147947  11240.295167   -614.754847
PC13  -5098.491858  22600.910525  35322.429181    -30.293580
PC14  -2562.944189 -22545.689936 -16258.913355    476.964644
PC16 -17180.679734  38506.706960  -3248.252287    132.136494
PC19  10616.833365  24378.099672   8459.766794    869.098475
PC20  -4486.290749  18075.815463  20790.416069   -918.617407
PC21  17861.014290   -478.389136 -21406.376789   -307.111447
PC22  20184.933164  16826.513451  -9335.923770   -969.718488
PC23 -22773.818120  -7881.079436  14077.408657   -930.192567
PC24  16673.588115 -14174.772270  17320.094621   -965.582829
PC25  -5846.792699 -15480.064344  22462.987364   -735.384247
PC26  27121.066352  -5767.893677   3301.448495    736.616272
PC27 -18600.636381  10926.711284 -17735.948662    724.572290
PC28 -13422.426081  -8695.465405 -22870.938634     67.782732
PC29    897.291075  23864.519143  14429.040484    555.855833
PC30 -12588.231214  24742.350657  -2985.473982    498.618888
PC32 -17921.416609    563.017145  21408.303971   -963.479744
PC33 -10746.950925 -24331.358998  -8466.136040   -965.929205
PC34  12034.836322 -25085.606476   1955.677317   -401.579538
PC35  13237.114625   9353.697258  22705.538103    278.071565
PC36   4904.072732  15705.200159 -22515.215651   -964.405466
PC37 -27462.672644   4378.821674  -2178.500797   -911.243912
PC38 -21770.532013  21394.396715  29058.438409    232.767116
PC39 -18579.968693  37825.747905   3168.361495     34.983491
PC40  -6213.244263  27674.902884 -31163.805017    269.787547
PC41 -20203.583586 -17067.350860   8967.942806   -966.063124
PC42   5305.199226 -17412.709821 -21109.600104   -971.052461
PC43   -377.568753 -24202.446356 -13879.102195   -923.595312
PC44  18276.072850 -11316.423719  17760.416450    662.460949
PC45  22980.130821   7612.227258 -13896.007734    759.323661
PC46 -15157.325033  14584.793111 -18317.632929   -329.285029
PE02   5309.652270  18844.197240 -22208.799698    299.731922
PE03   2309.435182  29468.535491   1422.407117   -559.168430
PE04 -13630.852562 -20960.147185  15858.480094  -1029.844570
PE05 -10592.728858  20806.761291  18201.653525   -180.808361
PE07  17127.144928   -192.534087 -24128.523320   -669.372487
PE08  13708.249871  20696.242853 -16104.471651   -530.607416
PE09 -16985.496469    338.601935  24248.873553   -521.313025
PE10 -20851.761934  -1270.230278 -20983.135284   -513.579846
PE11 -25134.970371   7630.534795 -13679.005869   3643.363246
PE12 -13614.652873  -9664.768285 -24451.329284   4609.401348
PE13  24919.625166  -7148.707059  14273.197813    428.733921
PE14 -16418.040611  15174.164326 -18554.766901  -1835.044287
PE15  13432.233157   9708.656602  24523.779377    745.129622
PE18   6769.644450 -27367.427349   5444.624508  -1438.596773
PE19   -614.038298 -29352.753238  -3754.626531  -4813.671673
PE21  14601.114371 -10907.695776  23322.235358   -734.695807
PE24 -27445.296320  -4689.525401 -10029.404190   -619.765809
PE25 -14853.223258  10735.463103 -23239.541174   -574.250237
PE26  21196.778312 -19994.367988  -5199.112367  -1154.826687
PE27  27207.026738   3728.194797  11060.337900   -300.789854
PE30  23021.194264  16569.128334  -8500.236861   -517.507929
PE31 -23682.958306 -16043.624052   7610.845697   -496.765190
PE33   5901.006181 -20746.812506 -20267.171511   -456.549986
PE34  -5684.329305  20704.377792  20364.711848   -517.492499
PE36 -21699.606708  19683.443487   4274.573528   -374.899329
PG01   5894.100717 -17649.966197 -19106.463637    361.071028
PG02 -21356.490686  15890.774603   1679.029174   -653.230553
PG03  -4407.863857 -17808.744084 -19356.101141   -247.345971
PG04   1035.770945 -26492.087643     10.305118   -166.412078
PG05 -11598.789678  10654.977681  21242.701835    -82.164683
PG06 -23190.681088   3640.394658 -12443.257112    306.783924
PG07 -11209.435948 -11418.830444  21653.399264    322.127579
PG08   5985.670676 -23988.604758   9172.526363    -68.377621
PG09  -7322.945821 -23510.265296   9847.040809   -336.058971
PG10  23942.177467  11381.840990  -3194.987969   -417.892040
PG11 -23258.763671  12724.922009   1421.132659    -23.900513
PG12  -1031.026063  16685.472072 -20932.282658   -216.816578
PG13 -12893.042887  17482.540277  15012.008778    313.164816
PG14 -23221.453003 -12774.066987  -2378.887833   -108.660692
PG15  -2872.445588  24892.054320   7910.281595    -60.560339
PG16  16573.817008  -5043.107781  19988.072117   -501.614879
PG17 -13211.558645  -9514.663411 -20541.714964    613.699669
PG18   9871.525384  11557.086338  21780.843979    167.760776
PG19 -14923.149687  -1248.660808 -22194.788075    158.477089
PG20 -20358.661659   4726.826230  16256.504726    514.820652
PG21  14783.248306 -18746.827439 -10239.476745    161.113510
PG22  15126.925788  -2237.377606 -21285.909777    260.559513
PG23  19631.630718  16430.081614   7268.471938    -22.441511
PG24  -8550.736519  19751.488368 -15591.112388    239.479711
PG25  13734.555593  18760.337359 -13374.359424    325.813829
PG26  23465.727324   1677.793756  12537.779859    206.215981
PG27  12431.005526 -14413.295236  18139.192227    204.204761
PG28 -22869.255502  -7588.112584 -10396.725600    356.366640
PG29   4729.030666  24120.866906   9925.992545   -514.557314
PG30 -19213.222531  -4550.038208  17963.756755   -528.217120
PG31  24349.542502  -5012.679965 -10109.569736   -177.978603
PG32  14764.197535   6584.115772 -20958.815298   -129.134070
PJ02 -27026.723031  16086.326774 -23494.105726     -0.159144
PJ03 -25608.211748  32745.620998  -2716.532564     -2.210776
PR01  14366.588157  19167.733404  -8738.025967      8.816051
PR02  12617.847446   2559.769419 -21983.098732    518.658604
PR03   3802.837850 -14639.877038 -20473.796046     56.803888
PR04  -7007.773729 -23304.841295  -7600.508120    141.948290
PR05 -13845.429668 -19205.110680   9484.457942     93.027220
PR07  -3357.388490  15294.216287  20195.132909     35.206342
PR08   7064.933145  23337.627986   7593.105622    -65.168912
PR09 -25116.804917    784.756030  -4591.779709     55.519720
PR11   3112.509325  10997.028903 -22792.523664     38.792022
PR12  20709.499224   7646.816361 -12768.983401     18.500936
PR13  25286.288647     -4.158887   3338.812803    -22.409865
PR14  14745.028951  -8232.277879  19121.523576     25.682105
PR15  -3939.554878 -11165.930606  22612.954889     96.071644
PR17  15205.417056 -20431.895649   1719.857112    526.828662
PR18   6281.364747 -20046.454959 -14420.497108    117.160328
PR19  -4885.556126 -10347.850195 -22803.294687   -189.311474
PR20 -16145.735781   8195.135562 -17987.593274    -70.723571
PR21 -14771.054216  20781.514033   -202.340391   -301.944960
PR22  -5927.377983  19757.088988  15056.256196   -183.689271
PR24  16394.618599  -8951.167692  17386.103434     94.175207
EOF
